H-2A R/B                
1 28932U 06002B   26164.29734761  .00006828  00000+0  32908-3 0  9998
2 28932  98.2553 319.7749 0049580 275.9199  83.6383 15.18015607108932
RESURS-DK 1             
1 29228U 06021A   26164.20135643  .00002518  00000+0  14752-3 0  9992
2 29228  69.9338 349.8704 0006764 294.8137  65.2325 15.13201545101973
CZ-4B R/B               
1 29507U 06046C   26164.09939605  .00003840  00000+0  19139-3 0  9999
2 29507  97.5457 208.7189 0031113 297.6993  62.1084 15.17755673 74516
CZ-2C R/B               
1 31114U 07010B   26164.25570950  .00000068  00000+0  50244-4 0  9992
2 31114  98.4094 272.7989 0059261  17.5351 342.7855 14.20275388993280
COSMO-SKYMED 1          
1 31598U 07023A   26164.32526791  .00002377  00000+0  21131-3 0  9991
2 31598  97.8843 356.1492 0001035  93.5246 266.6094 14.97081804 29214
COSMOS 2428             
1 31792U 07029A   26164.24991023 -.00000135  00000+0 -46801-4 0  9992
2 31792  70.9371   2.7448 0007167 142.4668 217.6954 14.12928789977590
SL-16 R/B               
1 31793U 07029B   26163.94913882  .00000261  00000+0  16020-3 0  9993
2 31793  70.9765 332.1374 0002243 260.0828 216.8578 14.14853066978840
KORONAS-FOTON           
1 33504U 09003A   26164.06471046  .00012296  00000+0  25379-3 0  9992
2 33504  82.4284 176.5596 0011217 161.1279 199.0388 15.45643875960464
CZ-2C R/B               
1 37731U 11030B   26163.85197330  .00001201  00000+0  15649-3 0  9991
2 37731  97.8654 119.3164 0053372  41.8414  11.8821 14.81461475804182
H-2A R/B                
1 38341U 12025E   26164.20992989  .00003368  00000+0  30307-3 0  9991
2 38341  98.4820 139.0276 0043902   2.3363 357.8053 14.95697262762495
SHIJIAN-16 (SJ-16)      
1 39358U 13057A   26164.28478012  .00000323  00000+0  34256-4 0  9996
2 39358  74.9735   4.0754 0016876 239.8434 120.1083 14.92598395685768
SL-4 R/B                
1 39679U 14021B   26163.91590551  .00011741  00000+0  24298-3 0  9996
2 39679  51.6056 231.6963 0091381  90.4264 270.7193 15.41871959670952
ALOS-2                  
1 39766U 14029A   26164.28409789  .00000932  00000+0  13171-3 0  9992
2 39766  97.9215 261.5033 0001609  90.6293 269.5103 14.79474635651009
YAOGAN-29               
1 41038U 15069A   26164.33212736  .00000302  00000+0  43738-4 0  9996
2 41038  98.0034 192.9589 0002815  60.3830 299.7663 14.83082683570053
ASTRO-H (HITOMI)        
1 41337U 16012A   26164.20157679  .00002465  00000+0  14024-3 0  9994
2 41337  30.9988  99.9269 0009730 214.1483 145.8530 15.10494425566685
HXMT (HUIYAN)           
1 42758U 17034A   26164.31917233  .00003859  00000+0  19336-3 0  9998
2 42758  43.0129 204.5796 0030260 121.7712 238.6090 15.18456282497079
SAOCOM 1A               
1 43641U 18076A   26164.28791634  .00000824  00000+0  11013-3 0  9991
2 43641  97.8885 351.0937 0001619  78.2773 281.8621 14.82147174415528
H-2A R/B                
1 43682U 18084L   26164.24253526  .00019843  00000+0  41817-3 0  9990
2 43682  98.8593  42.2711 0023836  53.7591 306.5852 15.45012285420510
SAOCOM 1B               
1 46265U 20059A   26164.31915728 -.00000216  00000+0 -20594-4 0  9998
2 46265  97.8887 350.2191 0001480  81.7416 278.3965 14.82165610312913
CSS (TIANHE)            
1 48274U 21035A   26164.20166782  .00021964  00000+0  26062-3 0  9997
2 48274  41.4695 346.2530 0007879  44.9431 315.2045 15.60638421292543
COSMOS 2550             
1 48865U 21056A   26164.30724916 -.00000152  00000+0  12132-5 0  9998
2 48865  67.1405 111.6422 0008385 268.1180  91.9014 15.33827707278120
CZ-2C R/B               
1 52794U 22058K   26164.27517904  .00034136  00000+0  38339-3 0  9993
2 52794  50.1837 183.8700 0032735 251.8703 107.8705 15.61586005225033
CZ-2C R/B               
1 54039U 22132E   26164.01292479  .00055944  00000+0  44170-3 0  9999
2 54039  97.2899 170.8516 0016531  97.0867 263.2276 15.71051999205291
GSLV R/B                
1 54149U 22138AN  26164.17453197  .00002346  00000+0  19931-3 0  9995
2 54149  87.3795 134.3316 0022264 157.3186 202.9035 14.97238400198212
XRISM                   
1 57800U 23137A   26164.03293171  .00004961  00000+0  27286-3 0  9998
2 57800  31.0031  26.5100 0007981 282.5999  77.3747 15.12431576152236
ACS3                    
1 59588U 24077B   26164.25745103  .00006804  00000+0  50886-2 0  9997
2 59588  97.1678  83.9238 0064798  67.3802 293.4202 13.93850750107492
CZ-8A R/B               
1 66004U 25231K   26163.92947812 -.00000046  00000+0  42111-4 0  9992
2 66004  50.0052  57.4302 0116472 209.0155 150.4254 14.30153820 34335
SZ-21 MODULE            
1 66515U 25246C   26164.16087904  .00046494  00000+0  28960-3 0  9990
2 66515  41.4732 332.3964 0006836 324.6850  35.3541 15.76064836 33101
