OBJECT_NAME,OBJECT_ID,EPOCH,MEAN_MOTION,ECCENTRICITY,INCLINATION,RA_OF_ASC_NODE,ARG_OF_PERICENTER,MEAN_ANOMALY,EPHEMERIS_TYPE,CLASSIFICATION_TYPE,NORAD_CAT_ID,ELEMENT_SET_NO,REV_AT_EPOCH,BSTAR,MEAN_MOTION_DOT,MEAN_MOTION_DDOT
H-2A R/B,2006-002B,2026-06-13T07:08:10.833504,15.18015607,.00495807,98.2553,319.7749,275.9199,83.6383,0,U,28932,999,10893,.32908259E-3,.6828E-4,0
RESURS-DK 1,2006-021A,2026-06-13T04:49:57.195552,15.13201545,.00067645,69.9338,349.8704,294.8137,65.2325,0,U,29228,999,10197,.14752475E-3,.2518E-4,0
CZ-4B R/B,2006-046C,2026-06-13T02:23:07.818720,15.17755673,.00311134,97.5457,208.7189,297.6993,62.1084,0,U,29507,999,7451,.19138772E-3,.384E-4,0
CZ-2C R/B,2007-010B,2026-06-13T06:08:13.300800,14.20275388,.00592613,98.4094,272.7989,17.5351,342.7855,0,U,31114,999,99328,.50244469E-4,.68E-6,0
COSMO-SKYMED 1,2007-023A,2026-06-13T07:48:23.147424,14.97081804,.00010357,97.8843,356.1492,93.5246,266.6094,0,U,31598,999,2921,.21131266E-3,.2377E-4,0
COSMOS 2428,2007-029A,2026-06-13T05:59:52.243872,14.12928789,.00071673,70.9371,2.7448,142.4668,217.6954,0,U,31792,999,97759,-.46800658E-4,-.135E-5,0
SL-16 R/B,2007-029B,2026-06-12T22:46:45.594048,14.14853066,.00022434,70.9765,332.1374,260.0828,216.8578,0,U,31793,999,97884,.16019702E-3,.261E-5,0
KORONAS-FOTON,2009-003A,2026-06-13T01:33:10.983744,15.45643875,.00112177,82.4284,176.5596,161.1279,199.0388,0,U,33504,999,96046,.25378996E-3,.12296E-3,0
CZ-2C R/B,2011-030B,2026-06-12T20:26:50.493120,14.81461475,.00533721,97.8654,119.3164,41.8414,11.8821,0,U,37731,999,80418,.15648555E-3,.1201E-4,0
H-2A R/B,2012-025E,2026-06-13T05:02:17.942496,14.95697262,.00439023,98.4820,139.0276,2.3363,357.8053,0,U,38341,999,76249,.30307448E-3,.3368E-4,0
SHIJIAN-16 (SJ-16),2013-057A,2026-06-13T06:50:05.002368,14.92598395,.00168766,74.9735,4.0754,239.8434,120.1083,0,U,39358,999,68576,.3425581E-4,.323E-5,0
SL-4 R/B,2014-021B,2026-06-12T21:58:54.236064,15.41871959,.00913811,51.6056,231.6963,90.4264,270.7193,0,U,39679,999,67095,.24297687E-3,.11741E-3,0
ALOS-2,2014-029A,2026-06-13T06:49:06.057696,14.79474635,.0001609,97.9215,261.5033,90.6293,269.5103,0,U,39766,999,65100,.13171263E-3,.932E-5,0
YAOGAN-29,2015-069A,2026-06-13T07:58:15.803904,14.83082683,.00028158,98.0034,192.9589,60.3830,299.7663,0,U,41038,999,57005,.43738143E-4,.302E-5,0
ASTRO-H (HITOMI),2016-012A,2026-06-13T04:50:16.234656,15.10494425,.00097305,30.9988,99.9269,214.1483,145.8530,0,U,41337,999,56668,.14023928E-3,.2465E-4,0
HXMT (HUIYAN),2017-034A,2026-06-13T07:39:36.489312,15.18456282,.00302601,43.0129,204.5796,121.7712,238.6090,0,U,42758,999,49707,.19336372E-3,.3859E-4,0
SAOCOM 1A,2018-076A,2026-06-13T06:54:35.971776,14.82147174,.00016191,97.8885,351.0937,78.2773,281.8621,0,U,43641,999,41552,.11012803E-3,.824E-5,0
H-2A R/B,2018-084L,2026-06-13T05:49:15.046464,15.45012285,.00238364,98.8593,42.2711,53.7591,306.5852,0,U,43682,999,42051,.41816984E-3,.19843E-3,0
SAOCOM 1B,2020-059A,2026-06-13T07:39:35.188992,14.82165610,.00014803,97.8887,350.2191,81.7416,278.3965,0,U,46265,999,31291,-.2059427E-4,-.216E-5,0
CSS (TIANHE),2021-035A,2026-06-13T04:50:24.099648,15.60638421,.0007879,41.4695,346.2530,44.9431,315.2045,0,U,48274,999,29254,.26061765E-3,.21964E-3,0
COSMOS 2550,2021-056A,2026-06-13T07:22:26.327424,15.33827707,.0008385,67.1405,111.6422,268.1180,91.9014,0,U,48865,999,27812,.1213177E-5,-.152E-5,0
CZ-2C R/B,2022-058K,2026-06-13T06:36:15.469056,15.61586005,.00327354,50.1837,183.8700,251.8703,107.8705,0,U,52794,999,22503,.38338701E-3,.34136E-3,0
CZ-2C R/B,2022-132E,2026-06-13T00:18:36.701856,15.71051999,.00165318,97.2899,170.8516,97.0867,263.2276,0,U,54039,999,20529,.44170061E-3,.55944E-3,0
GSLV R/B,2022-138AN,2026-06-13T04:11:19.562208,14.97238400,.00222644,87.3795,134.3316,157.3186,202.9035,0,U,54149,999,19821,.19930736E-3,.2346E-4,0
XRISM,2023-137A,2026-06-13T00:47:25.299744,15.12431576,.00079817,31.0031,26.5100,282.5999,77.3747,0,U,57800,999,15223,.27286335E-3,.4961E-4,0
ACS3,2024-077B,2026-06-13T06:10:43.768992,13.93850750,.00647989,97.1678,83.9238,67.3802,293.4202,0,U,59588,999,10749,.50885992E-2,.6804E-4,0
CZ-8A R/B,2025-231K,2026-06-12T22:18:26.909568,14.30153820,.01164726,50.0052,57.4302,209.0155,150.4254,0,U,66004,999,3433,.42110532E-4,-.46E-6,0
SZ-21 MODULE,2025-246C,2026-06-13T03:51:39.949056,15.76064836,.00068369,41.4732,332.3964,324.6850,35.3541,0,U,66515,999,3310,.28959531E-3,.46494E-3,0
